{"type": "FeatureCollection", "features": [ {"type": "Feature", "properties": {"norad_id": 66798, "name": "STARLINK-36041", "group": "last-30-days", "lat": 0.6420963815358613, "lon": -153.76084397477086, "alt_km": 379.0521059220564, "timestamp": "2025-12-20T09:36:00.353213+00:00", "meta": {"OBJECT_NAME": "STARLINK-36041", "OBJECT_ID": "2025-278H", "EPOCH": "2025-12-20T04:00:00.999072", "MEAN_MOTION": 15.63895673, "ECCENTRICITY": 0.0001509, "INCLINATION": 42.9989, "RA_OF_ASC_NODE": 206.9416, "ARG_OF_PERICENTER": 274.9517, "MEAN_ANOMALY": 211.262, "EPHEMERIS_TYPE": 0, "CLASSIFICATION_TYPE": "U", "NORAD_CAT_ID": 66798, "ELEMENT_SET_NO": 999, "REV_AT_EPOCH": 399, "BSTAR": -0.023003, "MEAN_MOTION_DOT": -0.01960712, "MEAN_MOTION_DDOT": 0}, "tle": {"line1": "1 66798U 25278H   25354.16667823 -.01960712  00000+0 -23003-1 0  9994", "line2": "2 66798  42.9989 206.9416 0001509 274.9517 211.2620 15.63895673  3995"}}, "geometry": {"type": "Point", "coordinates": [-153.76084397477086, 0.6420963815358613]}}, {"type": "Feature", "properties": {"norad_id": 66799, "name": "STARLINK-36044", "group": "last-30-days", "lat": 1.948971711552674, "lon": -152.36117586545802, "alt_km": 378.9689594747342, "timestamp": "2025-12-20T09:36:00.353228+00:00", "meta": {"OBJECT_NAME": "STARLINK-36044", "OBJECT_ID": "2025-278J", "EPOCH": "2025-12-20T04:00:00.999072", "MEAN_MOTION": 15.63892111, "ECCENTRICITY": 0.0001455, "INCLINATION": 42.9986, "RA_OF_ASC_NODE": 206.9375, "ARG_OF_PERICENTER": 272.7939, "MEAN_ANOMALY": 215.34, "EPHEMERIS_TYPE": 0, "CLASSIFICATION_TYPE": "U", "NORAD_CAT_ID": 66799, "ELEMENT_SET_NO": 999, "REV_AT_EPOCH": 415, "BSTAR": -0.022969, "MEAN_MOTION_DOT": -0.01957863, "MEAN_MOTION_DDOT": 0}, "tle": {"line1": "1 66799U 25278J   25354.16667823 -.01957863  00000+0 -22969-1 0  9998", "line2": "2 66799  42.9986 206.9375 0001455 272.7939 215.3400 15.63892111  4155"}}, "geometry": {"type": "Point", "coordinates": [-152.36117586545802, 1.948971711552674]}}, {"type": "Feature", "properties": {"norad_id": 66800, "name": "STARLINK-35996", "group": "last-30-days", "lat": 4.559560583629135, "lon": -149.5547039263442, "alt_km": 378.6539648663547, "timestamp": "2025-12-20T09:36:00.353240+00:00", "meta": {"OBJECT_NAME": "STARLINK-35996", "OBJECT_ID": "2025-278K", "EPOCH": "2025-12-20T04:00:00.999072", "MEAN_MOTION": 15.6389701, "ECCENTRICITY": 0.0001417, "INCLINATION": 42.9992, "RA_OF_ASC_NODE": 206.9273, "ARG_OF_PERICENTER": 274.2985, "MEAN_ANOMALY": 217.6699, "EPHEMERIS_TYPE": 0, "CLASSIFICATION_TYPE": "U", "NORAD_CAT_ID": 66800, "ELEMENT_SET_NO": 999, "REV_AT_EPOCH": 394, "BSTAR": -0.023082, "MEAN_MOTION_DOT": -0.0196664, "MEAN_MOTION_DDOT": 0}, "tle": {"line1": "1 66800U 25278K   25354.16667823 -.01966640  00000+0 -23082-1 0  9991", "line2": "2 66800  42.9992 206.9273 0001417 274.2985 217.6699 15.63897010  3942"}}, "geometry": {"type": "Point", "coordinates": [-149.5547039263442, 4.559560583629135]}}, {"type": "Feature", "properties": {"norad_id": 66801, "name": "STARLINK-36080", "group": "last-30-days", "lat": 11.020929620619738, "lon": -142.42505253149923, "alt_km": 377.8911387633634, "timestamp": "2025-12-20T09:36:00.353251+00:00", "meta": {"OBJECT_NAME": "STARLINK-36080", "OBJECT_ID": "2025-278L", "EPOCH": "2025-12-20T04:00:00.999072", "MEAN_MOTION": 15.63894788, "ECCENTRICITY": 0.000151, "INCLINATION": 42.9989, "RA_OF_ASC_NODE": 206.902, "ARG_OF_PERICENTER": 274.89, "MEAN_ANOMALY": 226.6635, "EPHEMERIS_TYPE": 0, "CLASSIFICATION_TYPE": "U", "NORAD_CAT_ID": 66801, "ELEMENT_SET_NO": 999, "REV_AT_EPOCH": 415, "BSTAR": -0.023039, "MEAN_MOTION_DOT": -0.01963368, "MEAN_MOTION_DDOT": 0}, "tle": {"line1": "1 66801U 25278L   25354.16667823 -.01963368  00000+0 -23039-1 0  9998", "line2": "2 66801  42.9989 206.9020 0001510 274.8900 226.6635 15.63894788  4159"}}, "geometry": {"type": "Point", "coordinates": [-142.42505253149923, 11.020929620619738]}}, {"type": "Feature", "properties": {"norad_id": 66802, "name": "STARLINK-35604", "group": "last-30-days", "lat": 3.2543043856196117, "lon": -150.96167882609257, "alt_km": 378.6957221539542, "timestamp": "2025-12-20T09:36:00.353261+00:00", "meta": {"OBJECT_NAME": "STARLINK-35604", "OBJECT_ID": "2025-278M", "EPOCH": "2025-12-20T04:00:00.999072", "MEAN_MOTION": 15.63894552, "ECCENTRICITY": 0.0001527, "INCLINATION": 42.999, "RA_OF_ASC_NODE": 206.9315, "ARG_OF_PERICENTER": 278.6719, "MEAN_ANOMALY": 211.3763, "EPHEMERIS_TYPE": 0, "CLASSIFICATION_TYPE": "U", "NORAD_CAT_ID": 66802, "ELEMENT_SET_NO": 999, "REV_AT_EPOCH": 415, "BSTAR": -0.022991, "MEAN_MOTION_DOT": -0.01959749, "MEAN_MOTION_DDOT": 0}, "tle": {"line1": "1 66802U 25278M   25354.16667823 -.01959749  00000+0 -22991-1 0  9993", "line2": "2 66802  42.9990 206.9315 0001527 278.6719 211.3763 15.63894552  4159"}}, "geometry": {"type": "Point", "coordinates": [-150.96167882609257, 3.2543043856196117]}}, {"type": "Feature", "properties": {"norad_id": 66803, "name": "STARLINK-35565", "group": "last-30-days", "lat": 5.8595924611347785, "lon": -148.14610158001955, "alt_km": 378.50110879053955, "timestamp": "2025-12-20T09:36:00.353273+00:00", "meta": {"OBJECT_NAME": "STARLINK-35565", "OBJECT_ID": "2025-278N", "EPOCH": "2025-12-20T04:00:00.999072", "MEAN_MOTION": 15.63896541, "ECCENTRICITY": 0.0001457, "INCLINATION": 42.9989, "RA_OF_ASC_NODE": 206.9222, "ARG_OF_PERICENTER": 274.4382, "MEAN_ANOMALY": 219.4452, "EPHEMERIS_TYPE": 0, "CLASSIFICATION_TYPE": "U", "NORAD_CAT_ID": 66803, "ELEMENT_SET_NO": 999, "REV_AT_EPOCH": 424, "BSTAR": -0.02305, "MEAN_MOTION_DOT": -0.01964257, "MEAN_MOTION_DDOT": 0}, "tle": {"line1": "1 66803U 25278N   25354.16667823 -.01964257  00000+0 -23050-1 0  9991", "line2": "2 66803  42.9989 206.9222 0001457 274.4382 219.4452 15.63896541  4241"}}, "geometry": {"type": "Point", "coordinates": [-148.14610158001955, 5.8595924611347785]}}, {"type": "Feature", "properties": {"norad_id": 66804, "name": "STARLINK-36038", "group": "last-30-days", "lat": 7.15708368063496, "lon": -146.72915408084697, "alt_km": 378.3924640492487, "timestamp": "2025-12-20T09:36:00.353283+00:00", "meta": {"OBJECT_NAME": "STARLINK-36038", "OBJECT_ID": "2025-278P", "EPOCH": "2025-12-20T04:00:00.999072", "MEAN_MOTION": 15.63893299, "ECCENTRICITY": 0.0001458, "INCLINATION": 42.9994, "RA_OF_ASC_NODE": 206.9179, "ARG_OF_PERICENTER": 272.5656, "MEAN_ANOMALY": 223.2366, "EPHEMERIS_TYPE": 0, "CLASSIFICATION_TYPE": "U", "NORAD_CAT_ID": 66804, "ELEMENT_SET_NO": 999, "REV_AT_EPOCH": 415, "BSTAR": -0.022997, "MEAN_MOTION_DOT": -0.0196008, "MEAN_MOTION_DDOT": 0}, "tle": {"line1": "1 66804U 25278P   25354.16667823 -.01960080  00000+0 -22997-1 0  9991", "line2": "2 66804  42.9994 206.9179 0001458 272.5656 223.2366 15.63893299  4157"}}, "geometry": {"type": "Point", "coordinates": [-146.72915408084697, 7.15708368063496]}}, {"type": "Feature", "properties": {"norad_id": 66805, "name": "STARLINK-36049", "group": "last-30-days", "lat": 9.74046776831808, "lon": -143.86890074529626, "alt_km": 378.037568204707, "timestamp": "2025-12-20T09:36:00.353293+00:00", "meta": {"OBJECT_NAME": "STARLINK-36049", "OBJECT_ID": "2025-278Q", "EPOCH": "2025-12-20T04:00:00.999072", "MEAN_MOTION": 15.6390001, "ECCENTRICITY": 0.0001526, "INCLINATION": 42.9991, "RA_OF_ASC_NODE": 206.9069, "ARG_OF_PERICENTER": 275.3092, "MEAN_ANOMALY": 224.3269, "EPHEMERIS_TYPE": 0, "CLASSIFICATION_TYPE": "U", "NORAD_CAT_ID": 66805, "ELEMENT_SET_NO": 999, "REV_AT_EPOCH": 415, "BSTAR": -0.02315, "MEAN_MOTION_DOT": -0.01972037, "MEAN_MOTION_DDOT": 0}, "tle": {"line1": "1 66805U 25278Q   25354.16667823 -.01972037  00000+0 -23150-1 0  9999", "line2": "2 66805  42.9991 206.9069 0001526 275.3092 224.3269 15.63900010  4158"}}, "geometry": {"type": "Point", "coordinates": [-143.86890074529626, 9.74046776831808]}}, {"type": "Feature", "properties": {"norad_id": 66806, "name": "STARLINK-36069", "group": "last-30-days", "lat": 8.450247885731049, "lon": -145.30525655648688, "alt_km": 378.18628909511335, "timestamp": "2025-12-20T09:36:00.353304+00:00", "meta": {"OBJECT_NAME": "STARLINK-36069", "OBJECT_ID": "2025-278R", "EPOCH": "2025-12-20T04:00:00.999072", "MEAN_MOTION": 15.63893976, "ECCENTRICITY": 0.0001513, "INCLINATION": 42.9994, "RA_OF_ASC_NODE": 206.9123, "ARG_OF_PERICENTER": 275.279, "MEAN_ANOMALY": 222.439, "EPHEMERIS_TYPE": 0, "CLASSIFICATION_TYPE": "U", "NORAD_CAT_ID": 66806, "ELEMENT_SET_NO": 999, "REV_AT_EPOCH": 394, "BSTAR": -0.022998, "MEAN_MOTION_DOT": -0.01960179, "MEAN_MOTION_DDOT": 0}, "tle": {"line1": "1 66806U 25278R   25354.16667823 -.01960179  00000+0 -22998-1 0  9993", "line2": "2 66806  42.9994 206.9123 0001513 275.2790 222.4390 15.63893976  3945"}}, "geometry": {"type": "Point", "coordinates": [-145.30525655648688, 8.450247885731049]}}, {"type": "Feature", "properties": {"norad_id": 66807, "name": "STARLINK-36000", "group": "last-30-days", "lat": 12.296186485933887, "lon": -140.96569424153373, "alt_km": 377.7620286538877, "timestamp": "2025-12-20T09:36:00.353316+00:00", "meta": {"OBJECT_NAME": "STARLINK-36000", "OBJECT_ID": "2025-278S", "EPOCH": "2025-12-20T04:00:00.999072", "MEAN_MOTION": 15.63899642, "ECCENTRICITY": 0.0001386, "INCLINATION": 42.9992, "RA_OF_ASC_NODE": 206.8982, "ARG_OF_PERICENTER": 272.5735, "MEAN_ANOMALY": 230.8965, "EPHEMERIS_TYPE": 0, "CLASSIFICATION_TYPE": "U", "NORAD_CAT_ID": 66807, "ELEMENT_SET_NO": 999, "REV_AT_EPOCH": 421, "BSTAR": -0.023126, "MEAN_MOTION_DOT": -0.01970091, "MEAN_MOTION_DDOT": 0}, "tle": {"line1": "1 66807U 25278S   25354.16667823 -.01970091  00000+0 -23126-1 0  9992", "line2": "2 66807  42.9992 206.8982 0001386 272.5735 230.8965 15.63899642  4211"}}, "geometry": {"type": "Point", "coordinates": [-140.96569424153373, 12.296186485933887]}}]}